{"type": "FeatureCollection", "features": [{"type": "Feature", "properties": {"norad_id": 32275, "name": "COSMOS 2433 (720)", "group": "glo-ops", "lat": -31.192486864950887, "lon": 157.68817922469916, "alt_km": 19124.021165306473, "timestamp": "2025-12-24T03:53:29.908209+00:00", "meta": {"OBJECT_NAME": "COSMOS 2433 (720)", "OBJECT_ID": "2007-052A", "EPOCH": "2025-12-22T00:07:36.568704", "MEAN_MOTION": 2.13104226, "ECCENTRICITY": 0.00051704, "INCLINATION": 65.6781, "RA_OF_ASC_NODE": 321.8942, "ARG_OF_PERICENTER": 255.846, "MEAN_ANOMALY": 104.0915, "EPHEMERIS_TYPE": 0, "CLASSIFICATION_TYPE": "U", "NORAD_CAT_ID": 32275, "ELEMENT_SET_NO": 999, "REV_AT_EPOCH": 14128, "BSTAR": 0, "MEAN_MOTION_DOT": -4.2e-07, "MEAN_MOTION_DDOT": 0}, "tle": {"line1": "1 32275U 07052A   25356.00528436 -.00000042  00000+0  00000+0 0  9997", "line2": "2 32275  65.6781 321.8942 0005170 255.8460 104.0915  2.13104226141283"}}, "geometry": {"type": "Point", "coordinates": [157.68817922469916, -31.192486864950887]}}, {"type": "Feature", "properties": {"norad_id": 32276, "name": "COSMOS 2432 (719)", "group": "glo-ops", "lat": 19.01316230816071, "lon": 132.97725002250735, "alt_km": 19154.252377849363, "timestamp": "2025-12-24T03:53:29.908231+00:00", "meta": {"OBJECT_NAME": "COSMOS 2432 (719)", "OBJECT_ID": "2007-052B", "EPOCH": "2025-12-23T17:17:50.353152", "MEAN_MOTION": 2.13103402, "ECCENTRICITY": 0.0011367, "INCLINATION": 65.6933, "RA_OF_ASC_NODE": 321.9613, "ARG_OF_PERICENTER": 314.6083, "MEAN_ANOMALY": 225.7918, "EPHEMERIS_TYPE": 0, "CLASSIFICATION_TYPE": "U", "NORAD_CAT_ID": 32276, "ELEMENT_SET_NO": 999, "REV_AT_EPOCH": 14134, "BSTAR": 0, "MEAN_MOTION_DOT": -3.5e-07, "MEAN_MOTION_DDOT": 0}, "tle": {"line1": "1 32276U 07052B   25357.72072168 -.00000035  00000+0  00000+0 0  9996", "line2": "2 32276  65.6933 321.9613 0011367 314.6083 225.7918  2.13103402141345"}}, "geometry": {"type": "Point", "coordinates": [132.97725002250735, 19.01316230816071]}}, {"type": "Feature", "properties": {"norad_id": 32393, "name": "COSMOS 2434 (721)", "group": "glo-ops", "lat": 60.391245001265375, "lon": -40.095213959647296, "alt_km": 19112.988674876564, "timestamp": "2025-12-24T03:53:29.908246+00:00", "meta": {"OBJECT_NAME": "COSMOS 2434 (721)", "OBJECT_ID": "2007-065A", "EPOCH": "2025-12-22T08:26:32.754336", "MEAN_MOTION": 2.13101487, "ECCENTRICITY": 0.00048131, "INCLINATION": 64.3157, "RA_OF_ASC_NODE": 197.8788, "ARG_OF_PERICENTER": 72.4714, "MEAN_ANOMALY": 83.8697, "EPHEMERIS_TYPE": 0, "CLASSIFICATION_TYPE": "U", "NORAD_CAT_ID": 32393, "ELEMENT_SET_NO": 999, "REV_AT_EPOCH": 14000, "BSTAR": 0, "MEAN_MOTION_DOT": 9.5e-07, "MEAN_MOTION_DDOT": 0}, "tle": {"line1": "1 32393U 07065A   25356.35176799  .00000095  00000+0  00000+0 0  9998", "line2": "2 32393  64.3157 197.8788 0004813  72.4714  83.8697  2.13101487140000"}}, "geometry": {"type": "Point", "coordinates": [-40.095213959647296, 60.391245001265375]}}, {"type": "Feature", "properties": {"norad_id": 32395, "name": "COSMOS 2436 (723)", "group": "glo-ops", "lat": -49.88181954887445, "lon": 52.72657439356255, "alt_km": 19166.27155715726, "timestamp": "2025-12-24T03:53:29.908259+00:00", "meta": {"OBJECT_NAME": "COSMOS 2436 (723)", "OBJECT_ID": "2007-065C", "EPOCH": "2025-12-23T14:51:15.098400", "MEAN_MOTION": 2.13100222, "ECCENTRICITY": 0.0017811, "INCLINATION": 64.3245, "RA_OF_ASC_NODE": 197.9064, "ARG_OF_PERICENTER": 10.214, "MEAN_ANOMALY": 171.2752, "EPHEMERIS_TYPE": 0, "CLASSIFICATION_TYPE": "U", "NORAD_CAT_ID": 32395, "ELEMENT_SET_NO": 999, "REV_AT_EPOCH": 13998, "BSTAR": 0, "MEAN_MOTION_DOT": 9.6e-07, "MEAN_MOTION_DDOT": 0}, "tle": {"line1": "1 32395U 07065C   25357.61892475  .00000096  00000+0  00000+0 0  9997", "line2": "2 32395  64.3245 197.9064 0017811  10.2140 171.2752  2.13100222139988"}}, "geometry": {"type": "Point", "coordinates": [52.72657439356255, -49.88181954887445]}}, {"type": "Feature", "properties": {"norad_id": 36111, "name": "COSMOS 2456 (730)", "group": "glo-ops", "lat": -63.84556745331159, "lon": -30.711785186206892, "alt_km": 19128.613687909598, "timestamp": "2025-12-24T03:53:29.908271+00:00", "meta": {"OBJECT_NAME": "COSMOS 2456 (730)", "OBJECT_ID": "2009-070A", "EPOCH": "2025-12-23T08:10:18.888096", "MEAN_MOTION": 2.13103774, "ECCENTRICITY": 0.00036109, "INCLINATION": 64.9055, "RA_OF_ASC_NODE": 76.9756, "ARG_OF_PERICENTER": 295.3784, "MEAN_ANOMALY": 56.6202, "EPHEMERIS_TYPE": 0, "CLASSIFICATION_TYPE": "U", "NORAD_CAT_ID": 36111, "ELEMENT_SET_NO": 999, "REV_AT_EPOCH": 12467, "BSTAR": 0, "MEAN_MOTION_DOT": -1e-08, "MEAN_MOTION_DDOT": 0}, "tle": {"line1": "1 36111U 09070A   25357.34049639 -.00000001  00000+0  00000+0 0  9998", "line2": "2 36111  64.9055  76.9756 0003610 295.3784  56.6202  2.13103774124670"}}, "geometry": {"type": "Point", "coordinates": [-30.711785186206892, -63.84556745331159]}}, {"type": "Feature", "properties": {"norad_id": 36112, "name": "COSMOS 2457 (733)", "group": "glo-ops", "lat": 28.067190282218576, "lon": 91.26578334095893, "alt_km": 19134.41227610728, "timestamp": "2025-12-24T03:53:29.908283+00:00", "meta": {"OBJECT_NAME": "COSMOS 2457 (733)", "OBJECT_ID": "2009-070B", "EPOCH": "2025-12-23T15:49:23.328192", "MEAN_MOTION": 2.13101141, "ECCENTRICITY": 0.0004506, "INCLINATION": 64.8913, "RA_OF_ASC_NODE": 76.812, "ARG_OF_PERICENTER": 162.7292, "MEAN_ANOMALY": 202.8862, "EPHEMERIS_TYPE": 0, "CLASSIFICATION_TYPE": "U", "NORAD_CAT_ID": 36112, "ELEMENT_SET_NO": 999, "REV_AT_EPOCH": 12469, "BSTAR": 0, "MEAN_MOTION_DOT": -1e-08, "MEAN_MOTION_DDOT": 0}, "tle": {"line1": "1 36112U 09070B   25357.65929778 -.00000001  00000+0  00000+0 0  9994", "line2": "2 36112  64.8913  76.8120 0004506 162.7292 202.8862  2.13101141124698"}}, "geometry": {"type": "Point", "coordinates": [91.26578334095893, 28.067190282218576]}}, {"type": "Feature", "properties": {"norad_id": 36402, "name": "COSMOS 2460 (732)", "group": "glo-ops", "lat": 28.02154888509564, "lon": -25.608274636055302, "alt_km": 19128.31193815917, "timestamp": "2025-12-24T03:53:29.908295+00:00", "meta": {"OBJECT_NAME": "COSMOS 2460 (732)", "OBJECT_ID": "2010-007C", "EPOCH": "2025-12-22T12:30:28.820160", "MEAN_MOTION": 2.1310637, "ECCENTRICITY": 0.00025026, "INCLINATION": 65.5243, "RA_OF_ASC_NODE": 320.4432, "ARG_OF_PERICENTER": 283.7046, "MEAN_ANOMALY": 288.4145, "EPHEMERIS_TYPE": 0, "CLASSIFICATION_TYPE": "U", "NORAD_CAT_ID": 36402, "ELEMENT_SET_NO": 999, "REV_AT_EPOCH": 12296, "BSTAR": 0, "MEAN_MOTION_DOT": -3.9e-07, "MEAN_MOTION_DDOT": 0}, "tle": {"line1": "1 36402U 10007C   25356.52116690 -.00000039  00000+0  00000+0 0  9995", "line2": "2 36402  65.5243 320.4432 0002502 283.7046 288.4145  2.13106370122964"}}, "geometry": {"type": "Point", "coordinates": [-25.608274636055302, 28.02154888509564]}}, {"type": "Feature", "properties": {"norad_id": 37867, "name": "COSMOS 2476 (744)", "group": "glo-ops", "lat": 8.668039875639701, "lon": -105.24294071595327, "alt_km": 19102.629459313222, "timestamp": "2025-12-24T03:53:29.908307+00:00", "meta": {"OBJECT_NAME": "COSMOS 2476 (744)", "OBJECT_ID": "2011-064A", "EPOCH": "2025-12-23T12:51:54.046080", "MEAN_MOTION": 2.13103692, "ECCENTRICITY": 0.002455, "INCLINATION": 65.1675, "RA_OF_ASC_NODE": 78.8064, "ARG_OF_PERICENTER": 235.5255, "MEAN_ANOMALY": 174.828, "EPHEMERIS_TYPE": 0, "CLASSIFICATION_TYPE": "U", "NORAD_CAT_ID": 37867, "ELEMENT_SET_NO": 999, "REV_AT_EPOCH": 11002, "BSTAR": 0, "MEAN_MOTION_DOT": 1e-08, "MEAN_MOTION_DDOT": 0}, "tle": {"line1": "1 37867U 11064A   25357.53604220  .00000001  00000+0  00000+0 0  9996", "line2": "2 37867  65.1675  78.8064 0024550 235.5255 174.8280  2.13103692110020"}}, "geometry": {"type": "Point", "coordinates": [-105.24294071595327, 8.668039875639701]}}, {"type": "Feature", "properties": {"norad_id": 37868, "name": "COSMOS 2477 (745)", "group": "glo-ops", "lat": -7.479751263294198, "lon": 75.39719518968093, "alt_km": 19155.701003523685, "timestamp": "2025-12-24T03:53:29.908319+00:00", "meta": {"OBJECT_NAME": "COSMOS 2477 (745)", "OBJECT_ID": "2011-064B", "EPOCH": "2025-12-23T05:19:57.056160", "MEAN_MOTION": 2.13103036, "ECCENTRICITY": 0.00215459, "INCLINATION": 65.1742, "RA_OF_ASC_NODE": 78.8944, "ARG_OF_PERICENTER": 235.4149, "MEAN_ANOMALY": 115.0574, "EPHEMERIS_TYPE": 0, "CLASSIFICATION_TYPE": "U", "NORAD_CAT_ID": 37868, "ELEMENT_SET_NO": 999, "REV_AT_EPOCH": 11000, "BSTAR": 0, "MEAN_MOTION_DOT": 0, "MEAN_MOTION_DDOT": 0}, "tle": {"line1": "1 37868U 11064B   25357.22218815  .00000000  00000+0  00000+0 0  9993", "line2": "2 37868  65.1742  78.8944 0021545 235.4149 115.0574  2.13103036110008"}}, "geometry": {"type": "Point", "coordinates": [75.39719518968093, -7.479751263294198]}}, {"type": "Feature", "properties": {"norad_id": 37869, "name": "COSMOS 2475 (743)", "group": "glo-ops", "lat": -45.914371923311414, "lon": 50.4055736093757, "alt_km": 19099.849276826277, "timestamp": "2025-12-24T03:53:29.908330+00:00", "meta": {"OBJECT_NAME": "COSMOS 2475 (743)", "OBJECT_ID": "2011-064C", "EPOCH": "2025-12-23T06:48:57.377088", "MEAN_MOTION": 2.13101654, "ECCENTRICITY": 0.00266814, "INCLINATION": 65.1811, "RA_OF_ASC_NODE": 78.9126, "ARG_OF_PERICENTER": 249.1292, "MEAN_ANOMALY": 104.6561, "EPHEMERIS_TYPE": 0, "CLASSIFICATION_TYPE": "U", "NORAD_CAT_ID": 37869, "ELEMENT_SET_NO": 999, "REV_AT_EPOCH": 11001, "BSTAR": 0, "MEAN_MOTION_DOT": 1e-08, "MEAN_MOTION_DDOT": 0}, "tle": {"line1": "1 37869U 11064C   25357.28399742  .00000001  00000+0  00000+0 0  9990", "line2": "2 37869  65.1811  78.9126 0026681 249.1292 104.6561  2.13101654110011"}}, "geometry": {"type": "Point", "coordinates": [50.4055736093757, -45.914371923311414]}}]}